SHIYAN-24C 02           
1 58651U 23206B   26068.89175597  .00002770  00000+0  23935-3 0  9991
2 58651  97.3985  41.8071 0003465  80.6641 279.4974 14.97980163120443
STARLINK-33904          
1 63887U 25094Z   26068.86779939  .00005810  00000+0  49417-3 0  9993
2 63887  70.0012 233.8528 0003120 268.9324  91.1478 14.98343675 47231
